sat02861
1 02861U 67065A   20046.68695580 -.00000005  00000-0 -42815-2 0  9999
2 02861  90.1251 310.2133 0074536 136.6027 224.0708  8.36656937607559
